CELESTIS-02             
1 25160U 98007D   22289.49709654  .00000004  00000+0  59593-4 0  9993
2 25160 107.9864 150.5153 0064378 263.3782 158.0361 14.21653986280289
CELESTIS-03             
1 26034U 99070C   22289.12604972  .00031167  00000+0  13191-2 0  9998
2 26034  98.3098 307.4165 0011162  81.8733 278.3767 15.23078524239428
